NORAD_CAT_ID,OBJECT_NAME,OBJECT_TYPE,EPOCH,MEAN_MOTION,ECCENTRICITY,INCLINATION,RA_OF_ASC_NODE,ARG_OF_PERICENTER,MEAN_ANOMALY,BSTAR,MEAN_MOTION_DOT,MEAN_MOTION_DDOT,TLE_LINE0,TLE_LINE1,TLE_LINE2,SEMIMAJOR_AXIS,PERIOD,APOGEE,PERIGEE,DECAYED
51880.0,STARLINK-3566,PAYLOAD,2022-10-23 07:20:53,15.08850417,0.0001523,53.2135,146.0034,63.949,296.1659,0.00015574,2.192e-05,0.0,0 STARLINK-3566,1 51880U 22022AE  22296.30617687  .00002192  00000-0  15574-3 0  9998,2 51880  53.2135 146.0034 0001523  63.9490 296.1659 15.08850417 36919,6917.849,95.437,540.7669999999998,538.66,0.0
51880.0,STARLINK-3566,PAYLOAD,2022-10-23 20:03:58,15.08847962,0.0001511,53.2132,143.6241,65.0565,295.0584,9.5868e-05,1.238e-05,0.0,0 STARLINK-3566,1 51880U 22022AE  22296.83609587  .00001238  00000-0  95868-4 0  9991,2 51880  53.2132 143.6241 0001511  65.0565 295.0584 15.08847962 36996,6917.856,95.437,540.766,538.6759999999998,0.0
51880.0,STARLINK-3566,PAYLOAD,2022-10-23 21:39:21,15.08848935,0.0001533,53.2135,143.327,67.3779,292.7375,5.8066e-05,6.36e-06,0.0,0 STARLINK-3566,1 51880U 22022AE  22296.90233524  .00000636  00000-0  58066-4 0  9993,2 51880  53.2135 143.3270 0001533  67.3779 292.7375 15.08848935 37000,6917.853,95.437,540.779,538.658,0.0
51880.0,STARLINK-3566,PAYLOAD,2022-10-24 13:33:13,15.08841272,0.0001588,53.2134,140.3534,66.6465,293.4695,6.924600000000001e-05,8.14e-06,0.0,0 STARLINK-3566,1 51880U 22022AE  22297.56473820  .00000814  00000-0  69246-4 0  9991,2 51880  53.2134 140.3534 0001588  66.6465 293.4695 15.08841272 37104,6917.877,95.437,540.84,538.643,0.0
51880.0,STARLINK-3566,PAYLOAD,2022-10-24 19:54:46,15.08836098,0.0001433,53.2151,139.1636,69.7524,290.3622,3.7013e-05,3.01e-06,0.0,0 STARLINK-3566,1 51880U 22022AE  22297.82970283  .00000301  00000-0  37013-4 0  9993,2 51880  53.2151 139.1636 0001433  69.7524 290.3622 15.08836098 37141,6917.892,95.438,540.749,538.766,0.0
51880.0,STARLINK-3566,PAYLOAD,2022-10-25 00:40:56,15.08825067,0.0001559,53.214,138.2719,65.7366,294.3788,-0.00018405,-3.215e-05,0.0,0 STARLINK-3566,1 51880U 22022AE  22298.02842929 -.00003215  00000-0 -18405-3 0  9993,2 51880  53.2140 138.2719 0001559  65.7366 294.3788 15.08825067 37174,6917.926,95.438,540.87,538.7130000000002,0.0
51880.0,STARLINK-3566,PAYLOAD,2022-10-25 07:02:29,15.0882893,0.0001445,53.2151,137.0824,70.4318,289.683,-0.00011355,-2.094e-05,0.0,0 STARLINK-3566,1 51880U 22022AE  22298.29339420 -.00002094  00000-0 -11355-3 0  9990,2 51880  53.2151 137.0824 0001445  70.4318 289.6830 15.08828930 37216,6917.9140000000025,95.438,540.779,538.78,0.0
51880.0,STARLINK-3566,PAYLOAD,2022-10-25 19:45:34,15.08828533,0.0001597,53.215,134.7034,66.2841,293.8319,-5.7267e-05,-1.199e-05,0.0,0 STARLINK-3566,1 51880U 22022AE  22298.82331732 -.00001199  00000-0 -57267-4 0  9995,2 51880  53.2150 134.7034 0001597  66.2841 293.8319 15.08828533 37290,6917.915,95.438,540.885,538.6759999999998,0.0
51880.0,STARLINK-3566,PAYLOAD,2022-10-26 13:14:49,15.08819979,0.0001610999999999,53.215,131.4322,66.4436,293.6725,0.00011319,1.513e-05,0.0,0 STARLINK-3566,1 51880U 22022AE  22299.55196184  .00001513  00000-0  11319-3 0  9991,2 51880  53.2150 131.4322 0001611  66.4436 293.6725 15.08819979 37409,6917.941999999999,95.439,540.9209999999998,538.692,0.0
51880.0,STARLINK-3566,PAYLOAD,2022-10-26 19:36:22,15.08823441,0.0001610999999999,53.215,130.2427,67.0314,293.0848,0.00013707,1.893e-05,0.0,0 STARLINK-3566,1 51880U 22022AE  22299.81692263  .00001893  00000-0  13707-3 0  9993,2 51880  53.2150 130.2427 0001611  67.0314 293.0848 15.08823441 37447,6917.931,95.439,540.91,538.682,0.0
51880.0,STARLINK-3566,PAYLOAD,2022-10-27 00:22:31,15.08825614,0.0001621999999999,53.215,129.3506,67.266,292.8504,0.00015216,2.134e-05,0.0,0 STARLINK-3566,1 51880U 22022AE  22300.01564355  .00002134  00000-0  15216-3 0  9994,2 51880  53.2150 129.3506 0001622  67.2660 292.8504 15.08825614 37475,6917.924,95.438,540.911,538.6669999999998,0.0
51880.0,STARLINK-3566,PAYLOAD,2022-10-27 19:27:09,15.08837796,0.0001616,53.215,125.7822,68.0563,292.0601,0.00016752,2.379e-05,0.0,0 STARLINK-3566,1 51880U 22022AE  22300.81052206  .00002379  00000-0  16752-3 0  9996,2 51880  53.2150 125.7822 0001616  68.0563 292.0601 15.08837796 37597,6917.887,95.438,540.87,538.634,0.0
51880.0,STARLINK-3566,PAYLOAD,2022-10-28 04:59:27,15.08840127,0.0001629,53.215,123.998,68.0685,292.048,0.00017016,2.421e-05,0.0,0 STARLINK-3566,1 51880U 22022AE  22301.20796203  .00002421  00000-0  17016-3 0  9994,2 51880  53.2150 123.9980 0001629  68.0685 292.0480 15.08840127 37655,6917.88,95.438,540.872,538.618,0.0
51880.0,STARLINK-3566,PAYLOAD,2022-10-28 19:17:55,15.08852638,0.0001631,53.215,121.3214,68.2452,291.8714,0.00021328,3.109e-05,0.0,0 STARLINK-3566,1 51880U 22022AE  22301.80411308  .00003109  00000-0  21328-3 0  9995,2 51880  53.2150 121.3214 0001631  68.2452 291.8714 15.08852638 37741,6917.842,95.437,540.835,538.578,0.0
51880.0,STARLINK-3566,PAYLOAD,2022-10-28 20:53:18,15.08854826,0.0001646,53.2151,121.0239,68.5242,291.5925,0.000234,3.44e-05,0.0,0 STARLINK-3566,1 51880U 22022AE  22301.87035156  .00003440  00000-0  23400-3 0  9996,2 51880  53.2151 121.0239 0001646  68.5242 291.5925 15.08854826 37755,6917.835,95.437,540.839,538.561,0.0
51880.0,STARLINK-3566,PAYLOAD,2022-10-29 14:22:32,15.0885516,0.0001696999999999,53.2145,117.7527,69.4094,290.708,8.8597e-05,1.123e-05,0.0,0 STARLINK-3566,1 51880U 22022AE  22302.59898614  .00001123  00000-0  88597-4 0  9997,2 51880  53.2145 117.7527 0001697  69.4094 290.7080 15.08855160 37868,6917.834,95.437,540.873,538.525,0.0
51880.0,STARLINK-3566,PAYLOAD,2022-10-29 20:44:04,15.08853403,0.0001712,53.2151,116.5637,70.2718,289.8459,5.569e-05,5.99e-06,0.0,0 STARLINK-3566,1 51880U 22022AE  22302.86394523  .00000599  00000-0  55690-4 0  9991,2 51880  53.2151 116.5637 0001712  70.2718 289.8459 15.08853403 37907,6917.839,95.437,540.889,538.52,0.0
51880.0,STARLINK-3566,PAYLOAD,2022-10-29 23:54:51,15.08841393,0.0001529,53.2145,115.9685,67.5607,292.5547,-0.00012426,-2.265e-05,0.0,0 STARLINK-3566,1 51880U 22022AE  22302.99642984 -.00002265  00000-0 -12426-3 0  9995,2 51880  53.2145 115.9685 0001529  67.5607 292.5547 15.08841393 37924,6917.876,95.437,540.799,538.683,0.0
51880.0,STARLINK-3566,PAYLOAD,2022-10-30 18:59:28,15.08846538,0.0001599,53.2148,112.4003,68.5001,291.6162,-4.2843e-05,-9.7e-06,0.0,0 STARLINK-3566,1 51880U 22022AE  22303.79130525 -.00000970  00000-0 -42843-4 0  9995,2 51880  53.2148 112.4003 0001599  68.5001 291.6162 15.08846538 38042,6917.86,95.437,540.832,538.619,0.0
51880.0,STARLINK-3566,PAYLOAD,2022-10-31 04:31:47,15.08849456,0.0001579,53.2145,110.6156,66.5656,293.5502,3.8198e-05,3.2e-06,0.0,0 STARLINK-3566,1 51880U 22022AE  22304.18874230  .00000320  00000-0  38198-4 0  9992,2 51880  53.2145 110.6156 0001579  66.5656 293.5502 15.08849456 38108,6917.851,95.437,540.809,538.624,0.0
51880.0,STARLINK-3566,PAYLOAD,2022-10-31 17:14:52,15.08838952,0.0001964,53.2146,108.2362,79.3352,280.7861,-6.5532e-05,-1.331e-05,0.0,0 STARLINK-3566,1 51880U 22022AE  22304.71866867 -.00001331  00000-0 -65532-4 0  9995,2 51880  53.2146 108.2362 0001964  79.3352 280.7861 15.08838952 38187,6917.884,95.438,541.107,538.39,0.0
51880.0,STARLINK-3566,PAYLOAD,2022-10-31 23:36:25,15.08847693,0.0001492,53.2145,107.0464,70.5397,289.5756,-0.0001793,-3.141e-05,0.0,0 STARLINK-3566,1 51880U 22022AE  22304.98362342 -.00003141  00000-0 -17930-3 0  9992,2 51880  53.2145 107.0464 0001492  70.5397 289.5756 15.08847693 38221,6917.857,95.437,540.754,538.69,0.0
51880.0,STARLINK-3566,PAYLOAD,2022-11-01 04:22:34,15.08839295,0.0001521999999999,53.2146,106.1544,66.4777,293.6375,0.00018062,2.588e-05,0.0,0 STARLINK-3566,1 51880U 22022AE  22305.18234938  .00002588  00000-0  18062-3 0  9993,2 51880  53.2146 106.1544 0001522  66.4777 293.6375 15.08839295 38256,6917.8830000000025,95.438,540.8,538.695,0.0
51880.0,STARLINK-3566,PAYLOAD,2022-11-01 18:41:03,15.08845017,0.0001631,53.2146,103.4777,67.7666,292.3499,0.00041295,6.291e-05,0.0,0 STARLINK-3566,1 51880U 22022AE  22305.77850704  .00006291  00000-0  41295-3 0  9992,2 51880  53.2146 103.4777 0001631  67.7666 292.3499 15.08845017 38348,6917.865,95.437,540.8580000000002,538.602,0.0
51880.0,STARLINK-3566,PAYLOAD,2022-11-01 21:51:48,15.088533300000002,0.000162,53.2146,102.8832,65.9371,294.1790000000001,0.00028278,4.217e-05,0.0,0 STARLINK-3566,1 51880U 22022AE  22305.91098219  .00004217  00000-0  28278-3 0  9995,2 51880  53.2146 102.8832 0001620  65.9371 294.1790 15.08853330 38367,6917.84,95.437,540.825,538.5840000000002,0.0
51880.0,STARLINK-3566,PAYLOAD,2022-11-02 12:10:17,15.08845496,0.0001547,53.2151,100.207,64.7481,295.3671,0.00010589,1.398e-05,0.0,0 STARLINK-3566,1 51880U 22022AE  22306.50714342  .00001398  00000-0  10589-3 0  9996,2 51880  53.2151 100.2070 0001547  64.7481 295.3671 15.08845496 38451,6917.864000000001,95.437,540.799,538.658,0.0
51880.0,STARLINK-3566,PAYLOAD,2022-11-02 20:07:16,15.08783089,0.0001575999999999,53.2148,98.7205,51.7084,308.405,-0.00065956,-0.00010753,0.0,0 STARLINK-3566,1 51880U 22022AE  22306.83838150 -.00010753  00000-0 -65956-3 0  9991,2 51880  53.2148  98.7205 0001576  51.7084 308.4050 15.08783089 38507,6918.054,95.441,541.01,538.8290000000002,0.0
51880.0,STARLINK-3566,PAYLOAD,2022-11-03 12:01:06,15.08830214,0.0001683,53.2149,95.7463,65.609,294.5077,0.00012936,1.771e-05,0.0,0 STARLINK-3566,1 51880U 22022AE  22307.50077424  .00001771  00000-0  12936-3 0  9993,2 51880  53.2149  95.7463 0001683  65.6090 294.5077 15.08830214 38609,6917.91,95.438,540.94,538.611,0.0
51880.0,STARLINK-3566,PAYLOAD,2022-11-03 19:58:02,15.08837146,0.000173,53.2151,94.2597,63.6387,296.4782,0.00019782,2.861e-05,0.0,0 STARLINK-3566,1 51880U 22022AE  22307.83197359  .00002861  00000-0  19782-3 0  9996,2 51880  53.2151  94.2597 0001730  63.6387 296.4782 15.08837146 38654,6917.889,95.438,540.951,538.557,0.0
